start=new Date('2021-10-30T00:00:00.000Z').valueOf();
sats=[{"MEAN_MOTION":"15.06406137","PERIAPSIS":"546.274","GP_ID":"188469072","OBJECT_TYPE":"PAYLOAD","LAUNCH_DATE":"2021-02-04","OBJECT_ID":"2021-009BF","MEAN_ANOMALY":"287.1549","MEAN_ELEMENT_THEORY":"SGP4","FILE":"3191844","MEAN_MOTION_DDOT":"0.0000000000000","TIME_SYSTEM":"UTC","INCLINATION":"53.0563","APOAPSIS":"548.115","OBJECT_NAME":"STARLINK-2006","ECCENTRICITY":"0.00013290","PERIOD":"95.592","DECAY_DATE":null,"BSTAR":"0.00011348000000","CENTER_NAME":"EARTH","NORAD_CAT_ID":"47601","RCS_SIZE":"LARGE","REF_FRAME":"TEME","ARG_OF_PERICENTER":"72.9586","MEAN_MOTION_DOT":"0.00001410","TLE_LINE1":"1 47601U 21009BF  21302.50495585  .00001410  00000-0  11348-3 0  9995","COUNTRY_CODE":"US","EPHEMERIS_TYPE":"0","SITE":"AFETR","TLE_LINE2":"2 47601  53.0563 309.2066 0001329  72.9586 287.1549 15.06406137 41093","RA_OF_ASC_NODE":"309.2066","REV_AT_EPOCH":"4109","SEMIMAJOR_AXIS":"6925.330","ELEMENT_SET_NO":"999","EPOCH":"2021-10-29T12:07:08.185440","CLASSIFICATION_TYPE":"U"},{"ELEMENT_SET_NO":"999","SEMIMAJOR_AXIS":"6925.320","REV_AT_EPOCH":"4094","EPOCH":"2021-10-29T11:02:05.717760","CLASSIFICATION_TYPE":"U","RA_OF_ASC_NODE":"319.4080","TLE_LINE2":"2 47602  53.0520 319.4080 0001611  74.4678 285.6489 15.06409220 40944","EPHEMERIS_TYPE":"0","SITE":"AFETR","COUNTRY_CODE":"US","TLE_LINE1":"1 47602U 21009BG  21302.45978840  .00001700  00000-0  13294-3 0  9994","MEAN_MOTION_DOT":"0.00001700","ARG_OF_PERICENTER":"74.4678","REF_FRAME":"TEME","RCS_SIZE":"LARGE","CENTER_NAME":"EARTH","NORAD_CAT_ID":"47602","BSTAR":"0.00013294000000","DECAY_DATE":null,"PERIOD":"95.592","OBJECT_NAME":"STARLINK-2007","ECCENTRICITY":"0.00016110","APOAPSIS":"548.301","INCLINATION":"53.0520","TIME_SYSTEM":"UTC","MEAN_MOTION_DDOT":"0.0000000000000","FILE":"3191412","MEAN_ELEMENT_THEORY":"SGP4","OBJECT_ID":"2021-009BG","LAUNCH_DATE":"2021-02-04","MEAN_ANOMALY":"285.6489","GP_ID":"188436078","PERIAPSIS":"546.070","OBJECT_TYPE":"PAYLOAD","MEAN_MOTION":"15.06409220"},{"OBJECT_ID":"2021-009BH","LAUNCH_DATE":"2021-02-04","MEAN_ANOMALY":"268.5957","MEAN_MOTION":"15.06406445","OBJECT_TYPE":"PAYLOAD","PERIAPSIS":"546.298","GP_ID":"188467573","ECCENTRICITY":"0.00012930","OBJECT_NAME":"STARLINK-2008","INCLINATION":"53.0562","APOAPSIS":"548.089","MEAN_MOTION_DDOT":"0.0000000000000","TIME_SYSTEM":"UTC","FILE":"3191844","MEAN_ELEMENT_THEORY":"SGP4","REF_FRAME":"TEME","NORAD_CAT_ID":"47603","CENTER_NAME":"EARTH","RCS_SIZE":"LARGE","BSTAR":"0.00006869400000","PERIOD":"95.592","DECAY_DATE":null,"EPOCH":"2021-10-29T14:30:25.471008","CLASSIFICATION_TYPE":"U","SEMIMAJOR_AXIS":"6925.329","REV_AT_EPOCH":"4054","ELEMENT_SET_NO":"999","RA_OF_ASC_NODE":"348.7555","EPHEMERIS_TYPE":"0","SITE":"AFETR","TLE_LINE2":"2 47603  53.0562 348.7555 0001293  91.5180 268.5957 15.06406445 40549","ARG_OF_PERICENTER":"91.5180","MEAN_MOTION_DOT":"0.00000742","TLE_LINE1":"1 47603U 21009BH  21302.60446147  .00000742  00000-0  68694-4 0  9992","COUNTRY_CODE":"US"},{"RA_OF_ASC_NODE":"317.6008","CLASSIFICATION_TYPE":"U","EPOCH":"2021-10-29T20:45:57.761568","SEMIMAJOR_AXIS":"6925.311","REV_AT_EPOCH":"4101","ELEMENT_SET_NO":"999","ARG_OF_PERICENTER":"70.5267","MEAN_MOTION_DOT":"0.00008631","TLE_LINE1":"1 47604U 21009BJ  21302.86525187  .00008631  00000-0  59743-3 0  9992","COUNTRY_CODE":"US","SITE":"AFETR","EPHEMERIS_TYPE":"0","TLE_LINE2":"2 47604  53.0539 317.6008 0001638  70.5267 289.5899 15.06412261 41012","NORAD_CAT_ID":"47604","CENTER_NAME":"EARTH","RCS_SIZE":"LARGE","REF_FRAME":"TEME","PERIOD":"95.591","DECAY_DATE":null,"BSTAR":"0.00059743000000","INCLINATION":"53.0539","APOAPSIS":"548.310","ECCENTRICITY":"0.00016380","OBJECT_NAME":"STARLINK-2021","MEAN_ELEMENT_THEORY":"SGP4","FILE":"3191844","MEAN_MOTION_DDOT":"0.0000000000000","TIME_SYSTEM":"UTC","MEAN_MOTION":"15.06412261","OBJECT_TYPE":"PAYLOAD","PERIAPSIS":"546.042","GP_ID":"188468328","MEAN_ANOMALY":"289.5899","LAUNCH_DATE":"2021-02-04","OBJECT_ID":"2021-009BJ"},{"MEAN_MOTION":"15.06408529","PERIAPSIS":"546.300","GP_ID":"188468573","OBJECT_TYPE":"PAYLOAD","MEAN_ANOMALY":"289.7783","LAUNCH_DATE":"2021-02-04","OBJECT_ID":"2021-009BK","INCLINATION":"53.0534","APOAPSIS":"548.075","ECCENTRICITY":"0.00012820","OBJECT_NAME":"STARLINK-2023","MEAN_ELEMENT_THEORY":"SGP4","FILE":"3191844","MEAN_MOTION_DDOT":"0.0000000000000","TIME_SYSTEM":"UTC","CENTER_NAME":"EARTH","NORAD_CAT_ID":"47605","RCS_SIZE":"LARGE","REF_FRAME":"TEME","PERIOD":"95.592","DECAY_DATE":null,"BSTAR":"0.00007687700000","RA_OF_ASC_NODE":"319.0984","SEMIMAJOR_AXIS":"6925.322","REV_AT_EPOCH":"4095","ELEMENT_SET_NO":"999","EPOCH":"2021-10-29T12:42:56.871360","CLASSIFICATION_TYPE":"U","MEAN_MOTION_DOT":"0.00000864","ARG_OF_PERICENTER":"70.3344","TLE_LINE1":"1 47605U 21009BK  21302.52982490  .00000864  00000-0  76877-4 0  9998","COUNTRY_CODE":"US","SITE":"AFETR","EPHEMERIS_TYPE":"0","TLE_LINE2":"2 47605  53.0534 319.0984 0001282  70.3344 289.7783 15.06408529 40954"},{"PERIOD":"95.592","DECAY_DATE":null,"BSTAR":"0.00013075000000","CENTER_NAME":"EARTH","NORAD_CAT_ID":"47606","RCS_SIZE":"LARGE","REF_FRAME":"TEME","ARG_OF_PERICENTER":"69.8906","MEAN_MOTION_DOT":"0.00001667","TLE_LINE1":"1 47606U 21009BL  21302.53720209  .00001667  00000-0  13075-3 0  9990","COUNTRY_CODE":"US","SITE":"AFETR","EPHEMERIS_TYPE":"0","TLE_LINE2":"2 47606  53.0546 319.0534 0001463  69.8906 290.2240 15.06401736 40966","RA_OF_ASC_NODE":"319.0534","ELEMENT_SET_NO":"999","SEMIMAJOR_AXIS":"6925.343","REV_AT_EPOCH":"4096","CLASSIFICATION_TYPE":"U","EPOCH":"2021-10-29T12:53:34.260576","MEAN_MOTION":"15.06401736","PERIAPSIS":"546.195","GP_ID":"188467327","OBJECT_TYPE":"PAYLOAD","MEAN_ANOMALY":"290.2240","LAUNCH_DATE":"2021-02-04","OBJECT_ID":"2021-009BL","MEAN_ELEMENT_THEORY":"SGP4","FILE":"3191844","MEAN_MOTION_DDOT":"0.0000000000000","TIME_SYSTEM":"UTC","INCLINATION":"53.0546","APOAPSIS":"548.221","OBJECT_NAME":"STARLINK-2024","ECCENTRICITY":"0.00014630"},{"MEAN_MOTION":"15.06404221","PERIAPSIS":"546.313","GP_ID":"188435327","OBJECT_TYPE":"PAYLOAD","MEAN_ANOMALY":"287.1099","LAUNCH_DATE":"2021-02-04","OBJECT_ID":"2021-009BM","MEAN_ELEMENT_THEORY":"SGP4","FILE":"3191412","MEAN_MOTION_DDOT":"0.0000000000000","TIME_SYSTEM":"UTC","INCLINATION":"53.0536","APOAPSIS":"548.088","ECCENTRICITY":"0.00012810","OBJECT_NAME":"STARLINK-2025","PERIOD":"95.592","DECAY_DATE":null,"BSTAR":"0.00007734400000","CENTER_NAME":"EARTH","NORAD_CAT_ID":"47607","RCS_SIZE":"LARGE","REF_FRAME":"TEME","MEAN_MOTION_DOT":"0.00000871","ARG_OF_PERICENTER":"73.0030","TLE_LINE1":"1 47607U 21009BM  21302.38239217  .00000871  00000-0  77344-4 0  9994","COUNTRY_CODE":"US","SITE":"AFETR","EPHEMERIS_TYPE":"0","TLE_LINE2":"2 47607  53.0536 319.7736 0001281  73.0030 287.1099 15.06404221 40936","RA_OF_ASC_NODE":"319.7736","SEMIMAJOR_AXIS":"6925.336","REV_AT_EPOCH":"4093","ELEMENT_SET_NO":"999","EPOCH":"2021-10-29T09:10:38.683488","CLASSIFICATION_TYPE":"U"},{"MEAN_MOTION_DDOT":"0.0000000000000","TIME_SYSTEM":"UTC","FILE":"3191844","MEAN_ELEMENT_THEORY":"SGP4","OBJECT_NAME":"STARLINK-1528","ECCENTRICITY":"0.00012460","INCLINATION":"53.0556","APOAPSIS":"548.065","OBJECT_ID":"2021-012A","LAUNCH_DATE":"2021-02-16","MEAN_ANOMALY":"286.0216","MEAN_MOTION":"15.06403597","PERIAPSIS":"546.340","GP_ID":"188467328","OBJECT_TYPE":"PAYLOAD","SITE":"AFETR","EPHEMERIS_TYPE":"0","TLE_LINE2":"2 47620  53.0556  19.1016 0001246  74.0910 286.0216 15.06403597 40006","ARG_OF_PERICENTER":"74.0910","MEAN_MOTION_DOT":"0.00001146","COUNTRY_CODE":"US","TLE_LINE1":"1 47620U 21012A   21302.53167140  .00001146  00000-0  95815-4 0  9994","ELEMENT_SET_NO":"999","SEMIMAJOR_AXIS":"6925.338","REV_AT_EPOCH":"4000","EPOCH":"2021-10-29T12:45:36.408960","CLASSIFICATION_TYPE":"U","RA_OF_ASC_NODE":"19.1016","BSTAR":"0.00009581500000","PERIOD":"95.592","DECAY_DATE":null,"REF_FRAME":"TEME","CENTER_NAME":"EARTH","NORAD_CAT_ID":"47620","RCS_SIZE":"LARGE"},{"FILE":"3191844","MEAN_ELEMENT_THEORY":"SGP4","MEAN_MOTION_DDOT":"0.0000000000000","TIME_SYSTEM":"UTC","INCLINATION":"53.0569","APOAPSIS":"547.920","OBJECT_NAME":"STARLINK-1609","ECCENTRICITY":"0.00010560","MEAN_MOTION":"15.06408229","GP_ID":"188468074","PERIAPSIS":"546.457","OBJECT_TYPE":"PAYLOAD","MEAN_ANOMALY":"265.1727","LAUNCH_DATE":"2021-02-16","OBJECT_ID":"2021-012B","ARG_OF_PERICENTER":"94.9383","MEAN_MOTION_DOT":"0.00001686","TLE_LINE1":"1 47621U 21012B   21302.72333378  .00001686  00000-0  13202-3 0  9992","COUNTRY_CODE":"US","EPHEMERIS_TYPE":"0","SITE":"AFETR","TLE_LINE2":"2 47621  53.0569  18.2298 0001056  94.9383 265.1727 15.06408229 40043","RA_OF_ASC_NODE":"18.2298","ELEMENT_SET_NO":"999","SEMIMAJOR_AXIS":"6925.323","REV_AT_EPOCH":"4004","CLASSIFICATION_TYPE":"U","EPOCH":"2021-10-29T17:21:36.038592","PERIOD":"95.592","DECAY_DATE":null,"BSTAR":"0.00013202000000","CENTER_NAME":"EARTH","NORAD_CAT_ID":"47621","RCS_SIZE":"LARGE","REF_FRAME":"TEME"},{"LAUNCH_DATE":"2021-02-16","MEAN_ANOMALY":"283.3416","OBJECT_ID":"2021-012C","OBJECT_TYPE":"PAYLOAD","PERIAPSIS":"546.316","GP_ID":"188468829","MEAN_MOTION":"15.06401466","ECCENTRICITY":"0.00012900","OBJECT_NAME":"STARLINK-1645","APOAPSIS":"548.102","INCLINATION":"53.0566","TIME_SYSTEM":"UTC","MEAN_MOTION_DDOT":"0.0000000000000","MEAN_ELEMENT_THEORY":"SGP4","FILE":"3191844","REF_FRAME":"TEME","RCS_SIZE":"LARGE","NORAD_CAT_ID":"47622","CENTER_NAME":"EARTH","BSTAR":"0.00011905000000","DECAY_DATE":null,"PERIOD":"95.592","CLASSIFICATION_TYPE":"U","EPOCH":"2021-10-29T14:05:13.328448","ELEMENT_SET_NO":"999","SEMIMAJOR_AXIS":"6925.344","REV_AT_EPOCH":"4001","RA_OF_ASC_NODE":"18.8344","TLE_LINE2":"2 47622  53.0566  18.8344 0001290  76.7716 283.3416 15.06401466 40017","SITE":"AFETR","EPHEMERIS_TYPE":"0","COUNTRY_CODE":"US","TLE_LINE1":"1 47622U 21012C   21302.58695982  .00001492  00000-0  11905-3 0  9992","ARG_OF_PERICENTER":"76.7716","MEAN_MOTION_DOT":"0.00001492"}];
